{
  "65646": {
    "noradId": "65646",
    "tle": [
      "1 65646C 25210AA  26016.11923611 -.00001248  00000+0 -42072-4 0   161",
      "2 65646  53.1576 191.4864 0001195  85.7592 111.1031 15.30192158    15"
    ]
  },
  "65647": {
    "noradId": "65647",
    "tle": [
      "1 65647C 25210AB  26016.12131944  .00002904  00000+0  97783-4 0   160",
      "2 65647  53.1578 191.4187 0001197  74.6328 162.7887 15.30219643    12"
    ]
  },
  "65648": {
    "noradId": "65648",
    "tle": [
      "1 65648C 25210AC  26016.11715278 -.00001037  00000+0 -34966-4 0   160",
      "2 65648  53.1579 191.3449 0001308  83.1567 177.8428 15.30192046    13"
    ]
  },
  "65649": {
    "noradId": "65649",
    "tle": [
      "1 65649C 25210AD  26016.12201389 -.00005842  00000+0 -19689-3 0   167",
      "2 65649  53.1577 191.3917 0001288  86.6326 166.2572 15.30196104    11"
    ]
  },
  "65652": {
    "noradId": "65652",
    "tle": [
      "1 65652C 25211A   26016.11854167  .00002436  00000+0  16913-3 0   160",
      "2 65652  97.6028  62.1882 0001317  85.8138  68.8516 15.05645519    16"
    ]
  },
  "65653": {
    "noradId": "65653",
    "tle": [
      "1 65653C 25211B   26016.11854167  .00004667  00000+0  32409-3 0   167",
      "2 65653  97.6032  62.2019 0001073  90.9635  93.7037 15.05645188    10"
    ]
  },
  "65654": {
    "noradId": "65654",
    "tle": [
      "1 65654C 25211C   26016.12201389  .00005132  00000+0  35637-3 0   165",
      "2 65654  97.6038  62.2187 0000745 100.7591 132.7136 15.05644998    11"
    ]
  },
  "65655": {
    "noradId": "65655",
    "tle": [
      "1 65655C 25211D   26016.12270833  .00004803  00000+0  33347-3 0   166",
      "2 65655  97.6030  62.1989 0000547 141.5286  50.6980 15.05648144    19"
    ]
  },
  "65656": {
    "noradId": "65656",
    "tle": [
      "1 65656C 25211E   26016.11993056  .00007104  00000+0  49317-3 0   166",
      "2 65656  97.6035  62.2097 0000304  91.4086 115.6624 15.05651114    16"
    ]
  },
  "65657": {
    "noradId": "65657",
    "tle": [
      "1 65657C 25211F   26016.12062500  .00006323  00000+0  43903-3 0   166",
      "2 65657  97.6041  62.2233 0000321 108.3950 132.5459 15.05644335    14"
    ]
  },
  "65658": {
    "noradId": "65658",
    "tle": [
      "1 65658C 25211G   26016.12201389 -.00012547  00000+0 -87149-3 0   164",
      "2 65658  97.6047  62.2374 0001156  91.7650 186.7584 15.05652142    11"
    ]
  },
  "65659": {
    "noradId": "65659",
    "tle": [
      "1 65659C 25211H   26016.11854167  .00008124  00000+0  56435-3 0   160",
      "2 65659  97.6044  62.2276 0000320  84.4597 160.2577 15.05625883    12"
    ]
  },
  "65660": {
    "noradId": "65660",
    "tle": [
      "1 65660C 25211J   26016.11576389  .00006186  00000+0  42958-3 0   160",
      "2 65660  97.6050  62.2375 0000863  95.1698 164.4339 15.05642058    19"
    ]
  },
  "65661": {
    "noradId": "65661",
    "tle": [
      "1 65661C 25211K   26016.11715278  .00008146  00000+0  56555-3 0   169",
      "2 65661  97.6053  62.2458 0000982  94.6002 187.4788 15.05647324    14"
    ]
  },
  "65662": {
    "noradId": "65662",
    "tle": [
      "1 65662C 25211L   26016.12201389  .00006190  00000+0  42985-3 0   163",
      "2 65662  97.6057  62.2572 0001196  94.9677 228.4829 15.05642775    12"
    ]
  },
  "65663": {
    "noradId": "65663",
    "tle": [
      "1 65663C 25211M   26016.11576389  .00001957  00000+0  13594-3 0   168",
      "2 65663  97.6058  62.2576 0001501  92.3155 212.2838 15.05643994    16"
    ]
  },
  "65664": {
    "noradId": "65664",
    "tle": [
      "1 65664C 25211N   26016.11854167  .00007390  00000+0  51318-3 0   165",
      "2 65664  97.6061  62.2669 0001413  89.2621 245.2632 15.05638446    13"
    ]
  },
  "65665": {
    "noradId": "65665",
    "tle": [
      "1 65665C 25211P   26016.11715278  .00007021  00000+0  48753-3 0   165",
      "2 65665  97.6061  62.2721 0001171 107.9425 234.0896 15.05641581    16"
    ]
  },
  "65666": {
    "noradId": "65666",
    "tle": [
      "1 65666C 25211Q   26016.11715278  .00003835  00000+0  26632-3 0   167",
      "2 65666  97.6060  62.2790 0000938 100.9867 256.1191 15.05644398    17"
    ]
  },
  "65667": {
    "noradId": "65667",
    "tle": [
      "1 65667C 25211R   26016.12131944  .00007510  00000+0  52175-3 0   166",
      "2 65667  97.6059  62.2893 0001760  90.2247 304.4890 15.05623966    18"
    ]
  },
  "65668": {
    "noradId": "65668",
    "tle": [
      "1 65668C 25211S   26016.11576389  .00071379  00000+0  49618-2 0   163",
      "2 65668  97.6058  62.2899 0001641  97.7122 281.8855 15.05537789    12"
    ]
  },
  "65669": {
    "noradId": "65669",
    "tle": [
      "1 65669C 25211T   26016.11576389  .00003141  00000+0  21810-3 0   161",
      "2 65669  97.6054  62.2965 0001650  93.8826 300.6907 15.05646744    11"
    ]
  },
  "65670": {
    "noradId": "65670",
    "tle": [
      "1 65670C 25211U   26016.12201389  .00005117  00000+0  35524-3 0   161",
      "2 65670  97.6048  62.3091 0001448  96.8344 346.4665 15.05651753    15"
    ]
  },
  "65671": {
    "noradId": "65671",
    "tle": [
      "1 65671C 25211V   26016.12062500  .00006448  00000+0  44778-3 0   161",
      "2 65671  97.6036  62.3209 0001456  93.3822  12.4068 15.05638700    10"
    ]
  },
  "65672": {
    "noradId": "65672",
    "tle": [
      "1 65672C 25211W   26016.11576389  .00005493  00000+0  38156-3 0   168",
      "2 65672  97.6042  62.3097 0000863  95.3061 329.2942 15.05632008    16"
    ]
  },
  "65673": {
    "noradId": "65673",
    "tle": [
      "1 65673C 25211X   26016.12201389  .00000896  00000+0  62217-4 0   163",
      "2 65673  97.6032  62.3356 0001598  90.7435  52.6808 15.05644795    18"
    ]
  },
  "65674": {
    "noradId": "65674",
    "tle": [
      "1 65674C 25211Y   26016.11923611  .00005833  00000+0  40465-3 0   168",
      "2 65674  97.6030  62.3397 0001265  85.6554  57.6179 15.05676915    13"
    ]
  },
  "65675": {
    "noradId": "65675",
    "tle": [
      "1 65675C 25211Z   26016.11576389  .00002753  00000+0  19119-3 0   165",
      "2 65675  97.6034  62.3226 0001420  93.1419   1.4220 15.05645963    19"
    ]
  },
  "65676": {
    "noradId": "65676",
    "tle": [
      "1 65676C 25212A   26016.11576389  .00002034  00000+0  68547-4 0   169",
      "2 65676  53.1566 229.6440 0001550  99.5048  40.2245 15.30192114    16"
    ]
  },
  "65677": {
    "noradId": "65677",
    "tle": [
      "1 65677C 25212B   26016.12131944  .00012101  00000+0  40787-3 0   166",
      "2 65677  53.1573 229.7921 0001267  87.3219 355.7929 15.30176540    18"
    ]
  },
  "65678": {
    "noradId": "65678",
    "tle": [
      "1 65678C 25212C   26016.12270833 -.00001587  00000+0 -53498-4 0   160",
      "2 65678  53.1565 230.1417 0001228  89.8350 180.6176 15.30193812    16"
    ]
  },
  "65679": {
    "noradId": "65679",
    "tle": [
      "1 65679C 25212D   26016.11784722  .00002350  00000+0  79201-4 0   164",
      "2 65679  53.1567 230.0941 0001292  90.6405 187.9082 15.30192551    17"
    ]
  },
  "65680": {
    "noradId": "65680",
    "tle": [
      "1 65680C 25212E   26016.11506944  .00003855  00000+0  12992-3 0   168",
      "2 65680  53.1562 229.5770 0001393  89.7175  81.0980 15.30186721    15"
    ]
  },
  "65681": {
    "noradId": "65681",
    "tle": [
      "1 65681C 25212F   26016.11576389  .00005962  00000+0  20096-3 0   164",
      "2 65681  53.1574 229.8853 0001408  83.0380 294.5608 15.30183735    16"
    ]
  },
  "65682": {
    "noradId": "65682",
    "tle": [
      "1 65682C 25212G   26016.12201389  .00009395  00000+0  31665-3 0   169",
      "2 65682  53.1562 229.4976 0001372  97.3791 134.9752 15.30182611    19"
    ]
  },
  "65683": {
    "noradId": "65683",
    "tle": [
      "1 65683C 25212H   26016.11715278  .00002858  00000+0  96331-4 0   165",
      "2 65683  53.1562 229.7072 0001513  88.7734  23.7202 15.30189656    19"
    ]
  },
  "65684": {
    "noradId": "65684",
    "tle": [
      "1 65684C 25212J   26016.11645833  .00009926  00000+0  33455-3 0   165",
      "2 65684  53.1575 229.9289 0001421  86.0104 272.1495 15.30179811    12"
    ]
  },
  "65685": {
    "noradId": "65685",
    "tle": [
      "1 65685C 25212K   26016.11645833  .00008836  00000+0  29780-3 0   161",
      "2 65685  53.1567 230.1338 0001209  86.2836 167.1705 15.30183823    16"
    ]
  },
  "65686": {
    "noradId": "65686",
    "tle": [
      "1 65686C 25212L   26016.11993056 -.00000444  00000+0 -11076-4 0   164",
      "2 65686  53.1558 223.0684 0001145  89.8546 132.7145 15.39596631    18"
    ]
  },
  "65687": {
    "noradId": "65687",
    "tle": [
      "1 65687C 25212M   26016.11645833  .00012575  00000+0  42373-3 0   161",
      "2 65687  53.1561 229.6742 0001356  89.3803  36.7362 15.30186971    12"
    ]
  },
  "65688": {
    "noradId": "65688",
    "tle": [
      "1 65688C 25212N   26016.12131944  .00011527  00000+0  38846-3 0   162",
      "2 65688  53.1572 229.7541 0001352  90.2493  10.3023 15.30183425    18"
    ]
  },
  "65689": {
    "noradId": "65689",
    "tle": [
      "1 65689C 25212P   26016.11923611  .00013073  00000+0  44063-3 0   168",
      "2 65689  53.1570 230.0516 0001370  84.6862 218.9833 15.30176880    13"
    ]
  },
  "65690": {
    "noradId": "65690",
    "tle": [
      "1 65690C 25212Q   26016.11576389  .00005311  00000+0  17900-3 0   162",
      "2 65690  53.1571 230.0332 0001341  87.3483 214.6275 15.30187235    18"
    ]
  },
  "65691": {
    "noradId": "65691",
    "tle": [
      "1 65691C 25212R   26016.12270833  .00009318  00000+0  23249-3 0   163",
      "2 65691  53.1563 222.6961 0001303  90.5411 327.5776 15.39609317    19"
    ]
  },
  "65692": {
    "noradId": "65692",
    "tle": [
      "1 65692C 25212S   26016.11715278 -.00005507  00000+0 -18559-3 0   166",
      "2 65692  53.1573 229.8423 0001469  60.7245 341.9615 15.30200027    18"
    ]
  }
}